[{"OBJECT_NAME":"YAOGAN-39 04A","OBJECT_ID":"2023-163A","EPOCH":"2026-03-06T06:05:45.530880","MEAN_MOTION":15.22966265,"ECCENTRICITY":0.00046272,"INCLINATION":34.9991,"RA_OF_ASC_NODE":272.0787,"ARG_OF_PERICENTER":162.7485,"MEAN_ANOMALY":197.3387,"EPHEMERIS_TYPE":0,"CLASSIFICATION_TYPE":"U","NORAD_CAT_ID":58141,"ELEMENT_SET_NO":999,"REV_AT_EPOCH":13187,"BSTAR":8.2738647e-5,"MEAN_MOTION_DOT":1.955e-5,"MEAN_MOTION_DDOT":0},{"OBJECT_NAME":"OBJECT B","OBJECT_ID":"2024-024B","EPOCH":"2026-03-09T23:03:07.239744","MEAN_MOTION":15.20764865,"ECCENTRICITY":0.00185665,"INCLINATION":97.3159,"RA_OF_ASC_NODE":138.1992,"ARG_OF_PERICENTER":118.5867,"MEAN_ANOMALY":241.724,"EPHEMERIS_TYPE":0,"CLASSIFICATION_TYPE":"U","NORAD_CAT_ID":58918,"ELEMENT_SET_NO":999,"REV_AT_EPOCH":11626,"BSTAR":0.00044590474,"MEAN_MOTION_DOT":9.803e-5,"MEAN_MOTION_DDOT":0}]
